ONEWEB-0694             
1 56722U 23068N   23328.91667824 -.00776656  00000+0 -12191+0 0  9993
2 56722  86.7450  63.3217 0012132 285.6217  74.9956 14.75667652  5459
ONEWEB-0696             
1 56723U 23068P   23328.89493040 -.00000139  00000+0 -40353-3 0  9999
2 56723  87.9002  85.4170 0001253 102.9281 257.1989 13.15544969 27096
ONEWEB-0703             
1 56724U 23068Q   23328.82906924  .00007214  00000+0  19159-1 0  9990
2 56724  87.9021  85.4524 0000647  48.4477 311.6709 13.15390600 26274
ONEWEB-0721             
1 56725U 23068R   23328.77679858  .00004051  00000+0  48766-3 0  9992
2 56725  86.6791  61.8648 0008334 283.4546  76.5749 14.83650134 28044
